start=new Date('2023-05-24T00:00:00.000Z').valueOf();
sats=[{"TIME_SYSTEM":"UTC","ELEMENT_SET_NO":"999","EPOCH":"2023-05-23T15:20:19.869504","OBJECT_ID":"2022-125AV","REV_AT_EPOCH":"3532","INCLINATION":"53.2170","GP_ID":"232407024","BSTAR":"0.00004343400000","MEAN_MOTION_DDOT":"0.0000000000000","RA_OF_ASC_NODE":"117.4400","SITE":"AFWTR","APOAPSIS":"540.596","CENTER_NAME":"EARTH","TLE_LINE2":"2 54007  53.2170 117.4400 0001242 105.9703 254.1426 15.08842686 35322","LAUNCH_DATE":"2022-10-05","TLE_LINE1":"1 54007U 22125AV  23143.63911886  .00000404  00000-0  43434-4 0  9993","CLASSIFICATION_TYPE":"U","RCS_SIZE":"LARGE","COUNTRY_CODE":"US","OBJECT_TYPE":"PAYLOAD","EPHEMERIS_TYPE":"0","NORAD_CAT_ID":"54007","PERIOD":"95.437","SEMIMAJOR_AXIS":"6917.872","ECCENTRICITY":"0.00012420","PERIAPSIS":"538.878","OBJECT_NAME":"STARLINK-5132","ARG_OF_PERICENTER":"105.9703","MEAN_ANOMALY":"254.1426","REF_FRAME":"TEME","MEAN_MOTION_DOT":"0.00000404","MEAN_MOTION":"15.08842686","MEAN_ELEMENT_THEORY":"SGP4","DECAY_DATE":null,"FILE":"3915766"},{"EPOCH":"2023-05-23T15:16:20.975232","ELEMENT_SET_NO":"999","TIME_SYSTEM":"UTC","INCLINATION":"53.2170","OBJECT_ID":"2022-125AW","REV_AT_EPOCH":"3546","BSTAR":"0.00001766400000","GP_ID":"232407776","MEAN_MOTION_DDOT":"0.0000000000000","RA_OF_ASC_NODE":"107.4468","TLE_LINE2":"2 54008  53.2170 107.4468 0001222  87.6599 272.4533 15.08846236 35465","CENTER_NAME":"EARTH","APOAPSIS":"540.572","SITE":"AFWTR","LAUNCH_DATE":"2022-10-05","TLE_LINE1":"1 54008U 22125AW  23143.63635388 -.00000007  00000-0  17664-4 0  9990","RCS_SIZE":"LARGE","COUNTRY_CODE":"US","OBJECT_TYPE":"PAYLOAD","CLASSIFICATION_TYPE":"U","NORAD_CAT_ID":"54008","PERIOD":"95.437","EPHEMERIS_TYPE":"0","SEMIMAJOR_AXIS":"6917.861","OBJECT_NAME":"STARLINK-5145","PERIAPSIS":"538.881","ECCENTRICITY":"0.00012220","ARG_OF_PERICENTER":"87.6599","MEAN_ANOMALY":"272.4533","DECAY_DATE":null,"MEAN_ELEMENT_THEORY":"SGP4","REF_FRAME":"TEME","MEAN_MOTION_DOT":"-0.00000007","MEAN_MOTION":"15.08846236","FILE":"3915766"},{"TLE_LINE1":"1 54009U 22125AX  23143.90039657  .00001861  00000-0  13500-3 0  9990","LAUNCH_DATE":"2022-10-05","APOAPSIS":"540.601","SITE":"AFWTR","CENTER_NAME":"EARTH","TLE_LINE2":"2 54009  53.2171 116.2284 0001213  96.1981 263.9150 15.08834749 35366","RA_OF_ASC_NODE":"116.2284","MEAN_MOTION_DDOT":"0.0000000000000","GP_ID":"232408025","BSTAR":"0.00013500000000","REV_AT_EPOCH":"3536","INCLINATION":"53.2171","OBJECT_ID":"2022-125AX","TIME_SYSTEM":"UTC","ELEMENT_SET_NO":"999","EPOCH":"2023-05-23T21:36:34.263648","FILE":"3915766","MEAN_MOTION_DOT":"0.00001861","MEAN_MOTION":"15.08834749","REF_FRAME":"TEME","DECAY_DATE":null,"MEAN_ELEMENT_THEORY":"SGP4","MEAN_ANOMALY":"263.9150","ARG_OF_PERICENTER":"96.1981","ECCENTRICITY":"0.00012130","PERIAPSIS":"538.922","OBJECT_NAME":"STARLINK-5099","SEMIMAJOR_AXIS":"6917.896","EPHEMERIS_TYPE":"0","PERIOD":"95.438","NORAD_CAT_ID":"54009","CLASSIFICATION_TYPE":"U","COUNTRY_CODE":"US","RCS_SIZE":"LARGE","OBJECT_TYPE":"PAYLOAD"},{"RCS_SIZE":"LARGE","COUNTRY_CODE":"US","OBJECT_TYPE":"PAYLOAD","CLASSIFICATION_TYPE":"U","EPHEMERIS_TYPE":"0","PERIOD":"95.438","NORAD_CAT_ID":"54010","SEMIMAJOR_AXIS":"6917.892","ECCENTRICITY":"0.00011780","OBJECT_NAME":"STARLINK-5127","PERIAPSIS":"538.942","ARG_OF_PERICENTER":"88.3124","MEAN_ANOMALY":"271.8003","MEAN_MOTION_DOT":"-0.00001259","REF_FRAME":"TEME","MEAN_MOTION":"15.08836104","DECAY_DATE":null,"MEAN_ELEMENT_THEORY":"SGP4","FILE":"3915766","TIME_SYSTEM":"UTC","EPOCH":"2023-05-23T05:33:26.117856","ELEMENT_SET_NO":"999","REV_AT_EPOCH":"3540","INCLINATION":"53.2160","OBJECT_ID":"2022-125AY","BSTAR":"-0.00006105500000","GP_ID":"232406274","MEAN_MOTION_DDOT":"0.0000000000000","RA_OF_ASC_NODE":"109.1971","SITE":"AFWTR","APOAPSIS":"540.572","TLE_LINE2":"2 54010  53.2160 109.1971 0001178  88.3124 271.8003 15.08836104 35409","CENTER_NAME":"EARTH","LAUNCH_DATE":"2022-10-05","TLE_LINE1":"1 54010U 22125AY  23143.23155229 -.00001259  00000-0 -61055-4 0  9994"},{"GP_ID":"232406524","BSTAR":"0.00001913300000","MEAN_MOTION_DDOT":"0.0000000000000","ELEMENT_SET_NO":"999","EPOCH":"2023-05-23T06:53:01.154688","TIME_SYSTEM":"UTC","INCLINATION":"53.2161","OBJECT_ID":"2022-125AZ","REV_AT_EPOCH":"3540","LAUNCH_DATE":"2022-10-05","TLE_LINE1":"1 54011U 22125AZ  23143.28681892  .00000017  00000-0  19133-4 0  9999","RA_OF_ASC_NODE":"109.5264","CENTER_NAME":"EARTH","TLE_LINE2":"2 54011  53.2161 109.5264 0001287 110.3297 249.7834 15.08843308 35408","APOAPSIS":"540.626","SITE":"AFWTR","SEMIMAJOR_AXIS":"6917.870","PERIAPSIS":"538.845","OBJECT_NAME":"STARLINK-5124","ECCENTRICITY":"0.00012870","CLASSIFICATION_TYPE":"U","COUNTRY_CODE":"US","RCS_SIZE":"LARGE","OBJECT_TYPE":"PAYLOAD","PERIOD":"95.437","NORAD_CAT_ID":"54011","EPHEMERIS_TYPE":"0","DECAY_DATE":null,"MEAN_ELEMENT_THEORY":"SGP4","MEAN_MOTION_DOT":"0.00000017","REF_FRAME":"TEME","MEAN_MOTION":"15.08843308","FILE":"3915766","ARG_OF_PERICENTER":"110.3297","MEAN_ANOMALY":"249.7834"},{"LAUNCH_DATE":"2022-10-05","TLE_LINE1":"1 54012U 22125BA  23143.92342977  .00001748  00000-0  12792-3 0  9994","RA_OF_ASC_NODE":"106.3958","SITE":"AFWTR","APOAPSIS":"540.721","TLE_LINE2":"2 54012  53.2174 106.3958 0001353 109.7939 250.3199 15.08826943 35506","CENTER_NAME":"EARTH","BSTAR":"0.00012792000000","GP_ID":"232407276","MEAN_MOTION_DDOT":"0.0000000000000","TIME_SYSTEM":"UTC","EPOCH":"2023-05-23T22:09:44.332128","ELEMENT_SET_NO":"999","REV_AT_EPOCH":"3550","INCLINATION":"53.2174","OBJECT_ID":"2022-125BA","REF_FRAME":"TEME","MEAN_MOTION_DOT":"0.00001748","MEAN_MOTION":"15.08826943","MEAN_ELEMENT_THEORY":"SGP4","DECAY_DATE":null,"FILE":"3915766","ARG_OF_PERICENTER":"109.7939","MEAN_ANOMALY":"250.3199","SEMIMAJOR_AXIS":"6917.920","ECCENTRICITY":"0.00013530","OBJECT_NAME":"STARLINK-5126","PERIAPSIS":"538.849","RCS_SIZE":"LARGE","COUNTRY_CODE":"US","OBJECT_TYPE":"PAYLOAD","CLASSIFICATION_TYPE":"U","EPHEMERIS_TYPE":"0","PERIOD":"95.438","NORAD_CAT_ID":"54012"},{"ARG_OF_PERICENTER":"89.2740","MEAN_ANOMALY":"270.8393","DECAY_DATE":null,"MEAN_ELEMENT_THEORY":"SGP4","REF_FRAME":"TEME","MEAN_MOTION_DOT":"-0.00000070","MEAN_MOTION":"15.08835411","FILE":"3915766","CLASSIFICATION_TYPE":"U","RCS_SIZE":"LARGE","COUNTRY_CODE":"US","OBJECT_TYPE":"PAYLOAD","PERIOD":"95.438","NORAD_CAT_ID":"54013","EPHEMERIS_TYPE":"0","SEMIMAJOR_AXIS":"6917.894","PERIAPSIS":"538.910","OBJECT_NAME":"STARLINK-5098","ECCENTRICITY":"0.00012280","RA_OF_ASC_NODE":"109.7115","CENTER_NAME":"EARTH","TLE_LINE2":"2 54013  53.2170 109.7115 0001228  89.2740 270.8393 15.08835411 35398","SITE":"AFWTR","APOAPSIS":"540.609","LAUNCH_DATE":"2022-10-05","TLE_LINE1":"1 54013U 22125BB  23143.20215888 -.00000070  00000-0  13691-4 0  9994","ELEMENT_SET_NO":"999","EPOCH":"2023-05-23T04:51:06.527232","TIME_SYSTEM":"UTC","OBJECT_ID":"2022-125BB","REV_AT_EPOCH":"3539","INCLINATION":"53.2170","GP_ID":"232407525","BSTAR":"0.00001369100000","MEAN_MOTION_DDOT":"0.0000000000000"},{"MEAN_MOTION_DDOT":"0.0000000000000","GP_ID":"232406775","BSTAR":"0.00018048000000","OBJECT_ID":"2022-125BC","REV_AT_EPOCH":"3550","INCLINATION":"53.2163","TIME_SYSTEM":"UTC","ELEMENT_SET_NO":"999","EPOCH":"2023-05-23T22:15:02.566656","TLE_LINE1":"1 54014U 22125BC  23143.92711304  .00002585  00000-0  18048-3 0  9990","LAUNCH_DATE":"2022-10-05","SITE":"AFWTR","APOAPSIS":"540.813","CENTER_NAME":"EARTH","TLE_LINE2":"2 54014  53.2163 106.4194 0001539 102.0933 258.0232 15.08838898 35500","RA_OF_ASC_NODE":"106.4194","ECCENTRICITY":"0.00015390","PERIAPSIS":"538.684","OBJECT_NAME":"STARLINK-5116","SEMIMAJOR_AXIS":"6917.884","EPHEMERIS_TYPE":"0","NORAD_CAT_ID":"54014","PERIOD":"95.438","CLASSIFICATION_TYPE":"U","COUNTRY_CODE":"US","OBJECT_TYPE":"PAYLOAD","RCS_SIZE":"LARGE","FILE":"3915766","MEAN_MOTION_DOT":"0.00002585","REF_FRAME":"TEME","MEAN_MOTION":"15.08838898","DECAY_DATE":null,"MEAN_ELEMENT_THEORY":"SGP4","MEAN_ANOMALY":"258.0232","ARG_OF_PERICENTER":"102.0933"},{"RA_OF_ASC_NODE":"106.3455","APOAPSIS":"540.675","SITE":"AFWTR","TLE_LINE2":"2 54015  53.2164 106.3455 0001305  97.8163 262.2978 15.08831266 35504","CENTER_NAME":"EARTH","LAUNCH_DATE":"2022-10-05","TLE_LINE1":"1 54015U 22125BD  23143.91605940  .00001143  00000-0  89927-4 0  9992","TIME_SYSTEM":"UTC","EPOCH":"2023-05-23T21:59:07.532160","ELEMENT_SET_NO":"999","REV_AT_EPOCH":"3550","INCLINATION":"53.2164","OBJECT_ID":"2022-125BD","BSTAR":"0.00008992700000","GP_ID":"232407025","MEAN_MOTION_DDOT":"0.0000000000000","ARG_OF_PERICENTER":"97.8163","MEAN_ANOMALY":"262.2978","MEAN_MOTION_DOT":"0.00001143","REF_FRAME":"TEME","MEAN_MOTION":"15.08831266","DECAY_DATE":null,"MEAN_ELEMENT_THEORY":"SGP4","FILE":"3915766","COUNTRY_CODE":"US","RCS_SIZE":"LARGE","OBJECT_TYPE":"PAYLOAD","CLASSIFICATION_TYPE":"U","EPHEMERIS_TYPE":"0","PERIOD":"95.438","NORAD_CAT_ID":"54015","SEMIMAJOR_AXIS":"6917.907","ECCENTRICITY":"0.00013050","OBJECT_NAME":"STARLINK-5055","PERIAPSIS":"538.869"},{"PERIAPSIS":"539.108","OBJECT_NAME":"STARLINK-5195","ECCENTRICITY":"0.00006480","SEMIMAJOR_AXIS":"6917.691","NORAD_CAT_ID":"54051","PERIOD":"95.434","EPHEMERIS_TYPE":"0","CLASSIFICATION_TYPE":"U","COUNTRY_CODE":"US","OBJECT_TYPE":"PAYLOAD","RCS_SIZE":"LARGE","FILE":"3915766","DECAY_DATE":null,"MEAN_ELEMENT_THEORY":"SGP4","MEAN_MOTION_DOT":"-0.00014646","MEAN_MOTION":"15.08901867","REF_FRAME":"TEME","MEAN_ANOMALY":"272.1173","ARG_OF_PERICENTER":"87.9893","MEAN_MOTION_DDOT":"0.0000000000000","GP_ID":"232406278","BSTAR":"-0.00090249000000","OBJECT_ID":"2022-136A","INCLINATION":"53.2168","REV_AT_EPOCH":"3268","ELEMENT_SET_NO":"999","EPOCH":"2023-05-23T13:17:12.555456","TIME_SYSTEM":"UTC","TLE_LINE1":"1 54051U 22136A   23143.55361754 -.00014646  00000-0 -90249-3 0  9998","LAUNCH_DATE":"2022-10-20","CENTER_NAME":"EARTH","TLE_LINE2":"2 54051  53.2168 248.4265 0000648  87.9893 272.1173 15.08901867 32682","SITE":"AFETR","APOAPSIS":"540.005","RA_OF_ASC_NODE":"248.4265"}];
